TDRS 3                  
1 19548U 88091B   20321.50878262 -.00000305  00000-0  00000+0 0  9997
2 19548  14.0944 356.0828 0037967 317.7963 236.4367  1.00276591104929
HST                     
1 20580U 90037B   20321.43517175  .00000612  00000-0  26214-4 0  9993
2 20580  28.4710  34.3887 0002466 291.2503 162.4070 15.09475368479033
TDRS 5                  
1 21639U 91054B   20321.66892487  .00000078  00000-0  00000+0 0  9992
2 21639  14.3193   9.3826 0022998  11.7940 108.1380  1.00273007107261
TDRS 6                  
1 22314U 93003B   20321.50948051 -.00000300  00000-0  00000+0 0  9990
2 22314  14.0674  12.5483 0005232  89.2264  91.7709  1.00275788101937
TDRS 7                  
1 23613U 95035B   20321.60735934 -.00000208  00000-0  00000+0 0  9992
2 23613  14.1637   3.2307 0025139  33.8779 322.5924  1.00269954 92713
ISS (ZARYA)             
1 25544U 98067A   20321.47126418  .00001737  00000-0  39620-4 0  9993
2 25544  51.6462 314.9433 0001784  55.8130  80.2895 15.49039778255620
LANDSAT 7               
1 25682U 99020A   20321.50949636  .00000045  00000-0  19622-4 0  9996
2 25682  98.0639  19.5570 0001751  89.8695 270.2709 14.57186008148387
TERRA                   
1 25994U 99068A   20321.71437274  .00000091  00000-0  30214-4 0  9998
2 25994  98.2003  33.7766 0001213  89.6145  62.6080 14.57115853112483
TDRS 8                  
1 26388U 00034A   20321.75182219 -.00000237  00000-0  00000+0 0  9999
2 26388   9.4667  46.4909 0015233 317.0386  52.6838  1.00276883 74733
TIMED                   
1 26998U 01055B   20321.79248739  .00000119  00000-0  16927-4 0  9992
2 26998  74.0725 349.9272 0001583 311.3509  48.7536 14.88233614 27200
TDRS 9                  
1 27389U 02011A   20321.38190979 -.00000287  00000-0  00000+0 0  9994
2 27389   7.8063  66.0292 0025061 276.1467 149.0313  1.00270248 69995
AQUA                    
1 27424U 02022A   20321.77908944  .00000117  00000-0  35986-4 0  9995
2 27424  98.2060 260.1564 0000560 171.7399 217.6018 14.57117136986103
TDRS 10                 
1 27566U 02055A   20321.61964257  .00000089  00000-0  00000+0 0  9992
2 27566   7.1709  52.8987 0006290 274.1294 141.0772  1.00273797 65781
SORCE                   
1 27651U 03004A   20321.74455917  .00000173  00000-0  32097-4 0  9994
2 27651  39.9946 200.7159 0022065   6.5089 353.5983 14.89178060966933
AURA                    
1 28376U 04026A   20321.77915730  .00000121  00000-0  36944-4 0  9999
2 28376  98.2063 262.3146 0001182  87.3923 272.7411 14.57116009869151
SWIFT                   
1 28485U 04047A   20321.54571851  .00001093  00000-0  44217-4 0  9991
2 28485  20.5576  40.0735 0010997 179.6352 180.4090 15.04738178876436
THEMIS A                
1 30580U 07004A   20316.52862139 -.00000366  00000-0  00000+0 0  9990
2 30580  15.8713  34.7112 8403546  57.6642 356.2750  0.87834480 48003
THEMIS D                
1 30797U 07004D   20318.78514727 -.00000444  00000-0  00000+0 0  9994
2 30797  13.6733  17.5166 8372653  76.7532 354.2843  0.87836578 47542
THEMIS E                
1 30798U 07004E   20318.84639959 -.00000408  00000-0  00000+0 0  9997
2 30798  13.0826  28.7865 8367214  68.3437 355.1383  0.87840972 47966
AIM                     
1 31304U 07015A   20321.74302759  .00001223  00000-0  71587-4 0  9999
2 31304  97.8861 210.0474 0004710 181.2988 178.8231 15.13849770743727
FGRST (GLAST)           
1 33053U 08029A   20321.82699069  .00000534  00000-0  13714-4 0  9992
2 33053  25.5817 142.6757 0012180 332.6501  27.3392 15.11401174686414
WISE                    
1 36119U 09071A   20321.63949873  .00001130  00000-0  41014-4 0  9993
2 36119  97.3118 355.7524 0002434 163.2228 196.9094 15.30357836607090
TDRS 11                 
1 39070U 13004A   20321.77101413  .00000076  00000-0  00000+0 0  9991
2 39070   3.6191 334.1420 0002220  42.0150 143.3329  1.00268841 28540
TDRS 12                 
1 39504U 14004A   20321.43054339 -.00000275  00000-0  00000+0 0  9993
2 39504   4.4722 339.6444 0002451 239.1224 311.0343  1.00264983 25005
GPM-CORE                
1 39574U 14009C   20321.63322888  .00003811  00000-0  59467-4 0  9998
2 39574  65.0066 354.0431 0011103 284.8994  75.0922 15.55581915381735
MMS 1                   
1 40482U 15011A   20316.12500000  .00000331  00000+0  00000+0 0  9991
2 40482  31.1118 119.2552 8506284  25.5871  64.5701  0.28539400 11670
MMS 2                   
1 40483U 15011B   20316.12500000  .00000331  00000+0  00000+0 0  9992
2 40483  31.1105 119.2654 8505617  25.5743  64.5841  0.28539430 11721
MMS 3                   
1 40484U 15011C   20316.12500000  .00000331  00000+0  00000+0 0  9993
2 40484  31.1059 119.2585 8506274  25.5760  64.5985  0.28541337 11416
MMS 4                   
1 40485U 15011D   20316.12500000  .00000331  00000+0  00000+0 0  9994
2 40485  31.1099 119.2627 8506919  25.5755  64.5766  0.28539544 11625
TDRS 13                 
1 42915U 17047A   20321.73167069 -.00000106  00000-0  00000+0 0  9994
2 42915   5.3436 330.4169 0012343 104.2730 233.3893  1.00271757 11935
JPSS-1                  
1 43013U 17073A   20321.81329777 -.00000009  00000-0  16479-4 0  9992
2 43013  98.7316 257.4741 0000789  81.7670 278.3596 14.19541727155271
